[Satellite]
VERSION=1.1
NAME=GORIZONT 9 [-]
NICKNAME=GORIZONT 9 [-]
TLE1=1 14940U 84041A   15051.93278256 -.00000033  00000-0  00000+0 0  9995
TLE2=2 14940  14.6023 351.0283 0008046 165.9518  33.4720  1.00315864 80567
